{"epoch":1784710044,"count":18256,"objects":[{"id":"43056","name":"GALILEO 20 (2C6)","type":"PAYLOAD","l1":"1 43056U 17079B   26201.15518388  .00000057  00000-0  00000-0 0  9994","l2":"2 43056  55.0668 220.5989 0004935 278.3287  81.6543  1.70474538 53568"},{"id":"43057","name":"GALILEO 21 (2C7)","type":"PAYLOAD","l1":"1 43057U 17079C   26201.96257603  .00000062  00000-0  00000-0 0  9990","l2":"2 43057  55.0652 220.5745 0004260 292.9460  67.0499  1.70474474 53565"},{"id":"43058","name":"GALILEO 22 (2C8)","type":"PAYLOAD","l1":"1 43058U 17079D   26202.18265508  .00000064  00000-0  00000-0 0  9991","l2":"2 43058  55.0651 220.5659 0005416 275.2147  84.7650  1.70474478 53591"},{"id":"43107","name":"BEIDOU 3M3","type":"PAYLOAD","l1":"1 43107U 18003A   26202.17906495 -.00000101  00000-0  00000-0 0  9993","l2":"2 43107  54.2952 301.1286 0004257 100.7827 259.2991  1.86228034 57988"},{"id":"43108","name":"BEIDOU 3M4","type":"PAYLOAD","l1":"1 43108U 18003B   26202.12330795 -.00000101  00000-0  00000-0 0  9993","l2":"2 43108  54.2882 301.1120 0003135 256.2857 103.7134  1.86230867 57992"},{"id":"43207","name":"BEIDOU 3M5","type":"PAYLOAD","l1":"1 43207U 18018A   26202.02956916 -.00000080  00000-0  00000-0 0  9993","l2":"2 43207  56.6812  62.0321 0007145  31.4150 328.6897  1.86231251 57375"},{"id":"43208","name":"BEIDOU 3M6","type":"PAYLOAD","l1":"1 43208U 18018B   26202.09607373 -.00000080  00000-0  00000-0 0  9991","l2":"2 43208  56.6801  62.0340 0007267 348.4500  11.5953  1.86231109 57373"},{"id":"43245","name":"BEIDOU 3M7","type":"PAYLOAD","l1":"1 43245U 18029A   26201.77715793 -.00000098  00000-0  00000-0 0  9993","l2":"2 43245  54.1607 298.7724 0001222 191.7687 168.2658  1.86228486 56527"},{"id":"43246","name":"BEIDOU 3M8","type":"PAYLOAD","l1":"1 43246U 18029B   26202.24830234 -.00000098  00000-0  00000-0 0  9995","l2":"2 43246  54.1587 298.7826 0003166  37.3895 322.6694  1.86229126 56510"},{"id":"43286","name":"IRNSS 1I","type":"PAYLOAD","l1":"1 43286U 18035A   26200.73725213  .00000063  00000-0  00000-0 0  9999","l2":"2 43286  28.8289  73.6878 0018366 178.9692   5.3277  1.00273777 30402"},{"id":"43508","name":"COSMOS 2527 (GLONASS)","type":"PAYLOAD","l1":"1 43508U 18053A   26201.40231311 -.00000049  00000-0  00000-0 0  9997","l2":"2 43508  65.5961  72.7996 0006344 227.3843 132.6293  2.13101992 62989"},{"id":"43539","name":"BEIDOU IGSO-7","type":"PAYLOAD","l1":"1 43539U 18057A   26197.82826650 -.00000084  00000-0  00000-0 0  9990","l2":"2 43539  55.1987 162.7987 0104915 237.9691 299.1450  1.00242392 29428"},{"id":"43564","name":"GALILEO 25 (2C1)","type":"PAYLOAD","l1":"1 43564U 18060A   26198.56730463 -.00000104  00000-0  00000-0 0  9993","l2":"2 43564  57.1585 340.9609 0002701 283.6812  76.2771  1.70476136 49688"},{"id":"43565","name":"GALILEO 26 (2C2)","type":"PAYLOAD","l1":"1 43565U 18060B   26201.71993406 -.00000107  00000-0  00000-0 0  9997","l2":"2 43565  57.1607 340.8795 0002976 234.4134 125.5527  1.70476015 49788"},{"id":"43566","name":"GALILEO 23 (2C9)","type":"PAYLOAD","l1":"1 43566U 18060C   26199.59444257 -.00000105  00000-0  00000-0 0  9993","l2":"2 43566  57.1608 340.9384 0001857 295.5518  64.4195  1.70476160 49723"},{"id":"43567","name":"GALILEO 24 (2C0)","type":"PAYLOAD","l1":"1 43567U 18060D   26200.98863111 -.00000107  00000-0  00000-0 0  9996","l2":"2 43567  57.1597 340.9001 0002111 284.4251  75.5444  1.70476103 49730"},{"id":"43581","name":"BEIDOU 3M9","type":"PAYLOAD","l1":"1 43581U 18062A   26200.32436039  .00000066  00000-0  00000-0 0  9990","l2":"2 43581  54.0864 181.2111 0005635 294.4179  65.4981  1.86228602 54232"},{"id":"43582","name":"BEIDOU 3M10","type":"PAYLOAD","l1":"1 43582U 18062B   26201.26189926  .00000074  00000-0  00000-0 0  9994","l2":"2 43582  54.0864 181.1686 0005402  11.1731 348.8168  1.86227764 54254"},{"id":"43602","name":"BEIDOU 3M11","type":"PAYLOAD","l1":"1 43602U 18067A   26202.27426829  .00000077  00000-0  00000-0 0  9993","l2":"2 43602  54.1815 179.8844 0008039  30.2122 329.8136  1.86227617 53754"},{"id":"43603","name":"BEIDOU 3M12","type":"PAYLOAD","l1":"1 43603U 18067B   26201.33550164  .00000074  00000-0  00000-0 0  9997","l2":"2 43603  54.1791 179.8798 0004714  13.7964 346.1934  1.86227099 53765"},{"id":"43622","name":"BEIDOU 3M13","type":"PAYLOAD","l1":"1 43622U 18072A   26201.82711213 -.00000080  00000-0  00000-0 0  9990","l2":"2 43622  56.6540  61.5496 0005671 334.9185  25.1158  1.86231285 53284"},{"id":"43623","name":"BEIDOU 3M14","type":"PAYLOAD","l1":"1 43623U 18072B   26202.22949836 -.00000080  00000-0  00000-0 0  9990","l2":"2 43623  56.6565  61.5310 0005432  13.4516 346.6246  1.86231111 53286"},{"id":"43647","name":"BEIDOU 3M15","type":"PAYLOAD","l1":"1 43647U 18078A   26201.84740117 -.00000098  00000-0  00000-0 0  9999","l2":"2 43647  54.0571 298.8050 0006512  39.2796 320.8048  1.86232385 52785"},{"id":"43648","name":"BEIDOU 3M16","type":"PAYLOAD","l1":"1 43648U 18078B   26201.97666235 -.00000098  00000-0  00000-0 0  9992","l2":"2 43648  54.0528 298.8006 0003388  57.1042 302.9655  1.86232487 52801"},{"id":"43683","name":"BEIDOU 3G1","type":"PAYLOAD","l1":"1 43683U 18085A   26202.61880816 -.00000109  00000-0  00000-0 0  9997","l2":"2 43683   2.9538  96.4412 0008253 357.0769 228.6180  1.00272805 28400"},{"id":"43687","name":"COSMOS 2529 (GLONASS)","type":"PAYLOAD","l1":"1 43687U 18086A   26201.49849141  .00000085  00000-0  00000-0 0  9995","l2":"2 43687  64.2975 191.4696 0011977 256.3144 103.5547  2.13101999 59991"},{"id":"43706","name":"BEIDOU 3M17","type":"PAYLOAD","l1":"1 43706U 18093A   26202.31267510  .00000078  00000-0  00000-0 0  9993","l2":"2 43706  54.1702 181.1386 0010016 295.2028 181.3842  1.86228477 52172"},{"id":"43707","name":"BEIDOU 3M18","type":"PAYLOAD","l1":"1 43707U 18093B   26202.00234979  .00000078  00000-0  00000-0 0  9993","l2":"2 43707  54.1710 181.1414 0008118 324.4293  35.4967  1.86226686 52169"},{"id":"43873","name":"NAVSTAR 77 (USA 289)","type":"PAYLOAD","l1":"1 43873U 18109A   26202.15801235 -.00000059  00000-0  00000-0 0  9996","l2":"2 43873  55.7023  90.8459 0038781 197.0456 335.2227  2.00563284 55759"},{"id":"44204","name":"BEIDOU 3 IGSO-1","type":"PAYLOAD","l1":"1 44204U 19023A   26201.43670862 -.00000215  00000-0  00000+0 0  9994","l2":"2 44204  58.7429  37.3061 0026121 223.7177 313.6747  1.00282251  7540"},{"id":"44231","name":"BEIDOU 2 G8","type":"PAYLOAD","l1":"1 44231U 19027A   26202.64493375 -.00000247  00000-0  00000-0 0  9990","l2":"2 44231   1.7436  74.5159 0009624 283.5626 318.0110  1.00270283 26422"}]}